{
  "type": "FeatureCollection",
  "features": [
    {
      "type": "Feature",
      "properties": {
        "norad_id": 66509,
        "name": "STARLINK-35598",
        "group": "last-30-days",
        "lat": -36.750710138522095,
        "lon": 89.52147881850141,
        "alt_km": 417.3173708235181,
        "timestamp": "2025-12-09T16:56:35.358683+00:00",
        "meta_object_name": "STARLINK-35598",
        "meta_object_id": "2025-263AA",
        "meta_epoch": "2025-12-09T12:00:02.000160",
        "meta_mean_motion": 15.50558665,
        "meta_eccentricity": 0.0001481,
        "meta_inclination": 43.0003,
        "meta_ra_of_asc_node": 143.9866,
        "meta_arg_of_pericenter": 264.9663,
        "meta_mean_anomaly": 322.7591,
        "meta_ephemeris_type": 0,
        "meta_classification_type": "U",
        "meta_norad_cat_id": 66509,
        "meta_element_set_no": 999,
        "meta_rev_at_epoch": 511,
        "meta_bstar": 0.0002452,
        "meta_mean_motion_dot": 0.00014058,
        "meta_mean_motion_ddot": 0,
        "tle_line1": "1 66509U 25263AA  25343.50002315  .00014058  00000+0  24520-3 0  9990",
        "tle_line2": "2 66509  43.0003 143.9866 0001481 264.9663 322.7591 15.50558665  5117"
      },
      "geometry": {
        "type": "Point",
        "coordinates": [
          89.52147881850141,
          -36.750710138522095
        ]
      }
    },
    {
      "type": "Feature",
      "properties": {
        "norad_id": 66510,
        "name": "STARLINK-35600",
        "group": "last-30-days",
        "lat": -38.90414488510273,
        "lon": 82.79692013443055,
        "alt_km": 417.4593222590538,
        "timestamp": "2025-12-09T16:56:35.358694+00:00",
        "meta_object_name": "STARLINK-35600",
        "meta_object_id": "2025-263AB",
        "meta_epoch": "2025-12-09T12:00:02.000160",
        "meta_mean_motion": 15.50581965,
        "meta_eccentricity": 0.0001393,
        "meta_inclination": 43.0003,
        "meta_ra_of_asc_node": 144.0024,
        "meta_arg_of_pericenter": 262.7329,
        "meta_mean_anomaly": 319.2389,
        "meta_ephemeris_type": 0,
        "meta_classification_type": "U",
        "meta_norad_cat_id": 66510,
        "meta_element_set_no": 999,
        "meta_rev_at_epoch": 511,
        "meta_bstar": -0.0010533,
        "meta_mean_motion_dot": -0.00061655,
        "meta_mean_motion_ddot": 0,
        "tle_line1": "1 66510U 25263AB  25343.50002315 -.00061655  00000+0 -10533-2 0  9997",
        "tle_line2": "2 66510  43.0003 144.0024 0001393 262.7329 319.2389 15.50581965  5119"
      },
      "geometry": {
        "type": "Point",
        "coordinates": [
          82.79692013443055,
          -38.90414488510273
        ]
      }
    },
    {
      "type": "Feature",
      "properties": {
        "norad_id": 66511,
        "name": "STARLINK-35444",
        "group": "last-30-days",
        "lat": -37.51047493935004,
        "lon": 87.32623093274168,
        "alt_km": 417.3293909726999,
        "timestamp": "2025-12-09T16:56:35.358704+00:00",
        "meta_object_name": "STARLINK-35444",
        "meta_object_id": "2025-263AC",
        "meta_epoch": "2025-12-09T12:00:02.000160",
        "meta_mean_motion": 15.50580688,
        "meta_eccentricity": 0.000145,
        "meta_inclination": 43.0003,
        "meta_ra_of_asc_node": 143.993,
        "meta_arg_of_pericenter": 269.7953,
        "meta_mean_anomaly": 316.0109,
        "meta_ephemeris_type": 0,
        "meta_classification_type": "U",
        "meta_norad_cat_id": 66511,
        "meta_element_set_no": 999,
        "meta_rev_at_epoch": 511,
        "meta_bstar": -0.00093508,
        "meta_mean_motion_dot": -0.00054819,
        "meta_mean_motion_ddot": 0,
        "tle_line1": "1 66511U 25263AC  25343.50002315 -.00054819  00000+0 -93508-3 0  9996",
        "tle_line2": "2 66511  43.0003 143.9930 0001450 269.7953 316.0109 15.50580688  5114"
      },
      "geometry": {
        "type": "Point",
        "coordinates": [
          87.32623093274168,
          -37.51047493935004
        ]
      }
    },
    {
      "type": "Feature",
      "properties": {
        "norad_id": 66512,
        "name": "STARLINK-35366",
        "group": "last-30-days",
        "lat": -35.950535008699376,
        "lon": 91.67694970113553,
        "alt_km": 417.3122217059099,
        "timestamp": "2025-12-09T16:56:35.358717+00:00",
        "meta_object_name": "STARLINK-35366",
        "meta_object_id": "2025-263AD",
        "meta_epoch": "2025-12-09T12:00:02.000160",
        "meta_mean_motion": 15.5057338,
        "meta_eccentricity": 0.0001421,
        "meta_inclination": 43.0003,
        "meta_ra_of_asc_node": 143.983,
        "meta_arg_of_pericenter": 268.7355,
        "meta_mean_anomaly": 320.9048,
        "meta_ephemeris_type": 0,
        "meta_classification_type": "U",
        "meta_norad_cat_id": 66512,
        "meta_element_set_no": 999,
        "meta_rev_at_epoch": 511,
        "meta_bstar": -0.0006843,
        "meta_mean_motion_dot": -0.00040272,
        "meta_mean_motion_ddot": 0,
        "tle_line1": "1 66512U 25263AD  25343.50002315 -.00040272  00000+0 -68430-3 0  9991",
        "tle_line2": "2 66512  43.0003 143.9830 0001421 268.7355 320.9048 15.50573380  5114"
      },
      "geometry": {
        "type": "Point",
        "coordinates": [
          91.67694970113553,
          -35.950535008699376
        ]
      }
    },
    {
      "type": "Feature",
      "properties": {
        "norad_id": 66513,
        "name": "STARLINK-35692",
        "group": "last-30-days",
        "lat": -38.22999036714652,
        "lon": 85.07951005478608,
        "alt_km": 417.4091847609443,
        "timestamp": "2025-12-09T16:56:35.358729+00:00",
        "meta_object_name": "STARLINK-35692",
        "meta_object_id": "2025-263AE",
        "meta_epoch": "2025-12-09T12:00:02.000160",
        "meta_mean_motion": 15.5057475,
        "meta_eccentricity": 0.0001453,
        "meta_inclination": 43.0003,
        "meta_ra_of_asc_node": 143.9966,
        "meta_arg_of_pericenter": 262.9988,
        "meta_mean_anomaly": 320.8899,
        "meta_ephemeris_type": 0,
        "meta_classification_type": "U",
        "meta_norad_cat_id": 66513,
        "meta_element_set_no": 999,
        "meta_rev_at_epoch": 511,
        "meta_bstar": -0.00077961,
        "meta_mean_motion_dot": -0.00045803,
        "meta_mean_motion_ddot": 0,
        "tle_line1": "1 66513U 25263AE  25343.50002315 -.00045803  00000+0 -77961-3 0  9996",
        "tle_line2": "2 66513  43.0003 143.9966 0001453 262.9988 320.8899 15.50574750  5113"
      },
      "geometry": {
        "type": "Point",
        "coordinates": [
          85.07951005478608,
          -38.22999036714652
        ]
      }
    },
    {
      "type": "Feature",
      "properties": {
        "norad_id": 66514,
        "name": "SENTINEL-6B",
        "group": "last-30-days",
        "lat": 33.181539136451086,
        "lon": -28.16272292389246,
        "alt_km": 1331.4866349200374,
        "timestamp": "2025-12-09T16:56:35.358740+00:00",
        "meta_object_name": "SENTINEL-6B",
        "meta_object_id": "2025-264A",
        "meta_epoch": "2025-12-08T23:22:28.384896",
        "meta_mean_motion": 12.84031992,
        "meta_eccentricity": 0.00210406,
        "meta_inclination": 66.0385,
        "meta_ra_of_asc_node": 170.2707,
        "meta_arg_of_pericenter": 268.23,
        "meta_mean_anomaly": 91.6307,
        "meta_ephemeris_type": 0,
        "meta_classification_type": "U",
        "meta_norad_cat_id": 66514,
        "meta_element_set_no": 999,
        "meta_rev_at_epoch": 280,
        "meta_bstar": 0.000106025,
        "meta_mean_motion_dot": -3.6e-07,
        "meta_mean_motion_ddot": 0,
        "tle_line1": "1 66514U 25264A   25342.97393964 -.00000036  00000+0  10602-3 0  9998",
        "tle_line2": "2 66514  66.0385 170.2707 0021040 268.2300  91.6307 12.84031992  2809"
      },
      "geometry": {
        "type": "Point",
        "coordinates": [
          -28.16272292389246,
          33.181539136451086
        ]
      }
    },
    {
      "type": "Feature",
      "properties": {
        "norad_id": 66516,
        "name": "STARLINK-35924",
        "group": "last-30-days",
        "lat": 41.92372526889247,
        "lon": 177.25612275194888,
        "alt_km": 406.76002721536406,
        "timestamp": "2025-12-09T16:56:35.358750+00:00",
        "meta_object_name": "STARLINK-35924",
        "meta_object_id": "2025-265A",
        "meta_epoch": "2025-12-09T12:00:02.000160",
        "meta_mean_motion": 15.52401125,
        "meta_eccentricity": 0.0001503,
        "meta_inclination": 42.9999,
        "meta_ra_of_asc_node": 72.9733,
        "meta_arg_of_pericenter": 276.6708,
        "meta_mean_anomaly": 112.8031,
        "meta_ephemeris_type": 0,
        "meta_classification_type": "U",
        "meta_norad_cat_id": 66516,
        "meta_element_set_no": 999,
        "meta_rev_at_epoch": 445,
        "meta_bstar": -0.036362,
        "meta_mean_motion_dot": -0.02031761,
        "meta_mean_motion_ddot": 0,
        "tle_line1": "1 66516U 25265A   25343.50002315 -.02031761  00000+0 -36362-1 0  9999",
        "tle_line2": "2 66516  42.9999  72.9733 0001503 276.6708 112.8031 15.52401125  4459"
      },
      "geometry": {
        "type": "Point",
        "coordinates": [
          177.25612275194888,
          41.92372526889247
        ]
      }
    }
  ]
}